CHINASAT 1E (ZX 1E)     
1 53813U 22112A   22285.74643866 -.00000155  00000+0  00000+0 0  9991
2 53813   1.4501 280.1139 0002607 269.0681 182.2046  1.00273234   380
CZ-7A R/B               
1 53814U 22112B   22286.04661516  .99999999 -60855-4  14351-2 0  9995
2 53814  13.8654 182.3002 1765939 232.6723 296.0042 12.49745743  1045
STRIX-1                 
1 53815U 22113A   22286.10730098  .00006401  00000+0  51796-3 0  9990
2 53815  97.6611 336.6100 0012727 207.2747 152.7773 15.00038986  4085
ELECTRON KICK STAGE R/B 
1 53817U 22113C   22285.96636218  .00007873  00000+0  62851-3 0  9992
2 53817  97.6582 336.4856 0013000 200.7528 159.3167 15.00479563  4068
STARLINK-4749           
1 53818U 22114A   22285.91667824 -.00019954  00000+0 -13801-3 0  9992
2 53818  53.2173 140.6661 0000810 115.1749 123.9358 15.73215116  4332
STARLINK-4738           
1 53819U 22114B   22285.91667824  .00070386  00000+0  50256-3 0  9992
2 53819  53.2174 140.6590 0001455  81.8249 160.2911 15.73160913  4338
STARLINK-4758           
1 53820U 22114C   22286.25001157 -.00001865  00000+0 -88749-5 0  9991
2 53820  53.2174 139.0148 0001230 120.6965 207.9490 15.73204864  4389
STARLINK-4752           
1 53821U 22114D   22285.91667824  .00087219  00000+0  61244-3 0  9997
2 53821  53.2140 140.6550 0001218 106.1833 136.7198 15.73465252  4336
STARLINK-4748           
1 53823U 22114F   22285.91667824 -.00003878  00000+0 -23225-4 0  9998
2 53823  53.2174 139.1124 0001038  25.1948 251.1041 15.73206129  4359
STARLINK-4757           
1 53824U 22114G   22285.91667824 -.00019413  00000+0 -13413-3 0  9998
2 53824  53.2174 140.6584 0001378  75.7748 167.5085 15.73214749  4336
STARLINK-4751           
1 53825U 22114H   22285.91667824 -.00020613  00000+0 -14272-3 0  9997
2 53825  53.2173 140.6586 0001020  78.3116 164.3755 15.73215460  4330
STARLINK-4756           
1 53826U 22114J   22285.91667824 -.00000668  00000+0 -34435-6 0  9992
2 53826  53.2175 140.6534 0001183 129.3469 116.3250 15.73204185  4333
STARLINK-4764           
1 53827U 22114K   22285.91667824 -.00000833  00000+0 -15222-5 0  9999
2 53827  53.2175 140.6565 0001122  47.2354 196.6482 15.73204273  4338
STARLINK-4760           
1 53828U 22114L   22285.91667824 -.00000672  00000+0 -37446-6 0  9994
2 53828  53.2175 140.6522 0001100 104.9584 141.3096 15.73204179  4337
STARLINK-4759           
1 53829U 22114M   22285.91667824 -.00000786  00000+0 -11863-5 0  9995
2 53829  53.2175 140.6554 0001215  62.0682 182.4115 15.73204249  4339
STARLINK-4761           
1 53830U 22114N   22285.91667824 -.00000713  00000+0 -65984-6 0  9991
2 53830  53.2175 140.6499 0001280  97.3683 150.0920 15.73204206  4331
STARLINK-4649           
1 53831U 22114P   22285.91667824 -.00000636  00000+0 -10844-6 0  9991
2 53831  53.2175 140.6543 0001535 102.6647 142.4112 15.73204173  1300
STARLINK-4747           
1 53832U 22114Q   22285.91667824 -.00000689  00000+0 -48507-6 0  9997
2 53832  53.2175 140.6475 0001574  97.2091 151.4433 15.73204193  4334
STARLINK-4771           
1 53833U 22114R   22285.91667824  .00016524  00000+0  12195-3 0  9992
2 53833  53.2174 140.6500 0000909 109.1100 137.7596 15.73193611  1301
STARLINK-4737           
1 53834U 22114S   22285.91667824 -.00000723  00000+0 -73279-6 0  9992
2 53834  53.2175 140.6452 0001225 111.7998 138.0449 15.73204206  4335
STARLINK-4783           
1 53835U 22114T   22285.91667824 -.00000719  00000+0 -70569-6 0  9997
2 53835  53.2175 140.6484 0001572  85.3450 162.7114 15.73204210  4333
STARLINK-4778           
1 53836U 22114U   22285.91667824 -.00000790  00000+0 -12131-5 0  9997
2 53836  53.2175 140.6429 0001324  84.7845 166.2524 15.73204239  4334
STARLINK-4776           
1 53837U 22114V   22286.25001157 -.00002609  00000+0 -14177-4 0  9999
2 53837  53.2174 138.9955 0001221 109.0775 229.1056 15.73205306  4387
STARLINK-4773           
1 53838U 22114W   22285.91667824 -.00001192  00000+0 -40840-5 0  9994
2 53838  53.2175 140.6418 0000775  87.5258 164.1071 15.73204481  4335
STARLINK-4784           
1 53839U 22114X   22286.25001157 -.00002642  00000+0 -14410-4 0  9998
2 53839  53.2174 138.9931 0001401  92.7626 246.6127 15.73205323  4388
STARLINK-4766           
1 53840U 22114Y   22286.25001157 -.00001552  00000+0 -66368-5 0  9999
2 53840  53.2174 138.9876 0001423 109.1183 233.2378 15.73204729  4382
STARLINK-4750           
1 53841U 22114Z   22285.91667824 -.00000795  00000+0 -12502-5 0  9990
2 53841  53.2175 140.6401 0001218  93.1481 159.0810 15.73204239  4330
STARLINK-4754           
1 53842U 22114AA  22285.91667824 -.00000779  00000+0 -11407-5 0  9996
2 53842  53.2175 140.6358 0000895  82.0868 172.5268 15.73204184  4334
STARLINK-4769           
1 53843U 22114AB  22285.91667824 -.00000772  00000+0 -10864-5 0  9996
2 53843  53.2175 140.6390 0001332  99.7956 153.0297 15.73204227  4335
STARLINK-4745           
1 53844U 22114AC  22285.91667824 -.00000877  00000+0 -18344-5 0  9994
2 53844  53.2175 140.6334 0000971  93.5295 162.2763 15.73204274  4332
STARLINK-4753           
1 53845U 22114AD  22285.91667824  .00012018  00000+0  89933-4 0  9994
2 53845  53.2173 140.6366 0001212  86.3638 167.6574 15.73196361  1306
STARLINK-4746           
1 53846U 22114AE  22285.91667824 -.00000816  00000+0 -13998-5 0  9999
2 53846  53.2175 140.6309 0001233 115.3585 141.6395 15.73204242  4330
STARLINK-4777           
1 53847U 22114AF  22285.91667824 -.00000794  00000+0 -12345-5 0  9990
2 53847  53.2175 140.6343 0001468  99.1089 156.1008 15.73204234  4330
STARLINK-4780           
1 53848U 22114AG  22285.91667824 -.00000850  00000+0 -16442-5 0  9996
2 53848  53.2175 140.6286 0001026 110.8190 147.3712 15.73204252  4335
STARLINK-4770           
1 53849U 22114AH  22285.91667824 -.00000823  00000+0 -14439-5 0  9991
2 53849  53.2175 140.6319 0001413  98.0554 158.3465 15.73204247  4335
STARLINK-4767           
1 53850U 22114AJ  22285.91667824 -.00017559  00000+0 -12088-3 0  9993
2 53850  53.2174 140.6246 0001366  86.6433 173.3320 15.73213549  4333
STARLINK-4755           
1 53851U 22114AK  22285.91667824 -.00000806  00000+0 -13292-5 0  9991
2 53851  53.2175 140.6297 0001275 106.8750 150.7191 15.73204231  4330
STARLINK-4797           
1 53852U 22114AL  22285.91667824 -.00015364  00000+0 -10520-3 0  9996
2 53852  53.2174 140.6224 0001146  98.5222 162.6457 15.73212272  4339
STARLINK-4794           
1 53853U 22114AM  22286.25001157 -.00001367  00000+0 -53303-5 0  9992
2 53853  53.2174 138.9765 0000935 103.2967 244.4244 15.73204653  4387
STARLINK-4800           
1 53854U 22114AN  22285.91667824  .00033875  00000+0  24498-3 0  9992
2 53854  53.2174 140.6202 0001263 107.3446 155.0284 15.73183051  4330
STARLINK-4703           
1 53855U 22114AP  22285.91667824 -.00008541  00000+0 -56479-4 0  9992
2 53855  53.2175 140.6255 0001249  94.7732 164.6079 15.73208541  4331
STARLINK-4795           
1 53856U 22114AQ  22285.91667824 -.00000973  00000+0 -25207-5 0  9990
2 53856  53.2175 140.6142 0000992 112.6425 152.7010 15.73204307  4339
STARLINK-4809           
1 53857U 22114AR  22285.91667824 -.00000871  00000+0 -17929-5 0  9990
2 53857  53.2175 140.6236 0001155 112.0105 148.5642 15.73204261  4338
STARLINK-4798           
1 53858U 22114AS  22285.91667824 -.00000921  00000+0 -21492-5 0  9997
2 53858  53.2175 140.6192 0001189 104.2665 158.6926 15.73204284  4333
STARLINK-4790           
1 53859U 22114AT  22285.91667824 -.00000940  00000+0 -22821-5 0  9996
2 53859  53.2175 140.6212 0001098 102.4820 159.2849 15.73204299  4336
STARLINK-4799           
1 53860U 22114AU  22286.25001157 -.00001256  00000+0 -45329-5 0  9996
2 53860  53.2174 138.9650 0001214 104.7778 248.9044 15.73204609  4383
STARLINK-4781           
1 53861U 22114AV  22286.25001157 -.00001311  00000+0 -49239-5 0  9993
2 53861  53.2174 138.9671 0001439 102.1997 250.2903 15.73204635  4380
STARLINK-4792           
1 53862U 22114AW  22285.91667824 -.00000973  00000+0 -25140-5 0  9993
2 53862  53.2175 140.6133 0001482 102.3668 163.5728 15.73204314  4330
STARLINK-4788           
1 53863U 22114AX  22285.91667824 -.00000980  00000+0 -25613-5 0  9997
2 53863  53.2175 140.6164 0001396  89.0643 175.0870 15.73204315  4330
STARLINK-4779           
1 53864U 22114AY  22285.91667824 -.00001002  00000+0 -27237-5 0  9998
2 53864  53.2175 140.6109 0001321  95.4184 171.7135 15.73204320  4332
STARLINK-4785           
1 53865U 22114AZ  22285.91667824 -.00000976  00000+0 -25384-5 0  9999
2 53865  53.2175 140.6116 0001361 100.5096 166.0261 15.73204309  4339
STARLINK-4762           
1 53866U 22114BA  22285.91667824 -.00001047  00000+0 -30487-5 0  9990
2 53866  53.2175 140.6074 0001041 105.6011 163.3191 15.73204343  4331
STARLINK-4793           
1 53867U 22114BB  22285.91667824 -.00000998  00000+0 -26971-5 0  9998
2 53867  53.2175 140.6092 0001041 105.2823 162.4456 15.73204314  4331
STARLINK-4789           
1 53868U 22114BC  22285.91667824 -.00019749  00000+0 -13654-3 0  9995
2 53868  53.2175 140.5964 0001097 119.1935 158.3061 15.73214549  4335
STARLINK-4810           
1 53869U 22114BD  22285.91667824 -.00001007  00000+0 -27621-5 0  9995
2 53869  53.2175 140.6080 0001138 108.5127 159.8113 15.73204321  4338
STARLINK-4732           
1 53870U 22114BE  22285.91667824 -.00001121  00000+0 -35765-5 0  9992
2 53870  53.2175 140.6051 0000823 104.5647 165.5476 15.73204384  4336
STARLINK-4740           
1 53871U 22114BF  22285.91667824 -.00001083  00000+0 -33000-5 0  9990
2 53871  53.2175 140.6033 0001381 101.8337 168.8748 15.73204367  4332
CHUANGXIN 16B (CX-16B)  
1 53876U 22102B   22285.74045429  .00006272  00000+0  59218-3 0  9994
2 53876  28.9995  43.6165 0005230  52.7460 307.3613 14.91970275  3430
YUNHAI-1 03             
1 53877U 22115A   22285.99517432  .00000456  00000+0  18324-3 0  9995
2 53877  98.4976 284.2993 0001481  86.9076 273.2282 14.32804059  3164
